ASTROCAST-0402          
1 55109U 23001DE  26068.80661100  .00010930  00000+0  41835-3 0  9996
2 55109  97.5556 160.6821 0004209 216.6984 143.3966 15.26734153129364
STARLINK-31452          
1 59527U 24073S   26067.71742494 -.00000513  00000+0 -91441-5 0  9997
2 59527  43.0013 323.7939 0000772 273.2657  86.8106 15.27575157106028
